[{"OBJECT_NAME":"ONEWEB-0497","OBJECT_ID":"2022-138D","EPOCH":"2026-03-09T23:34:05.464416","MEAN_MOTION":13.19724843,"ECCENTRICITY":0.00017048,"INCLINATION":87.9229,"RA_OF_ASC_NODE":324.7296,"ARG_OF_PERICENTER":82.5446,"MEAN_ANOMALY":277.5881,"EPHEMERIS_TYPE":0,"CLASSIFICATION_TYPE":"U","NORAD_CAT_ID":54116,"ELEMENT_SET_NO":999,"REV_AT_EPOCH":16372,"BSTAR":-0.00037639086,"MEAN_MOTION_DOT":-1.38e-6,"MEAN_MOTION_DDOT":0},{"OBJECT_NAME":"SL-14 DEB","OBJECT_ID":"1991-056C","EPOCH":"2026-03-09T19:45:00.808992","MEAN_MOTION":13.18013758,"ECCENTRICITY":0.00036809,"INCLINATION":82.5539,"RA_OF_ASC_NODE":206.1276,"ARG_OF_PERICENTER":304.5802,"MEAN_ANOMALY":55.4974,"EPHEMERIS_TYPE":0,"CLASSIFICATION_TYPE":"U","NORAD_CAT_ID":45266,"ELEMENT_SET_NO":999,"REV_AT_EPOCH":29203,"BSTAR":0.00029517141,"MEAN_MOTION_DOT":1.28e-6,"MEAN_MOTION_DDOT":0}]
